{
  "type": "FeatureCollection",
  "features": [
    {
      "type": "Feature",
      "properties": {
        "norad_id": 37535,
        "name": "COSMOS 2251 DEB",
        "group": "cosmos-2251-debris",
        "lat": 48.71285854902457,
        "lon": 68.57582037031823,
        "alt_km": 706.7116640551985,
        "timestamp": "2025-12-25T07:41:10.121138+00:00",
        "meta_object_name": "COSMOS 2251 DEB",
        "meta_object_id": "1993-036BNQ",
        "meta_epoch": "2025-12-24T14:01:54.104736",
        "meta_mean_motion": 14.58529628,
        "meta_eccentricity": 0.00271363,
        "meta_inclination": 74.0232,
        "meta_ra_of_asc_node": 50.9348,
        "meta_arg_of_pericenter": 187.9993,
        "meta_mean_anomaly": 322.847,
        "meta_ephemeris_type": 0,
        "meta_classification_type": "U",
        "meta_norad_cat_id": 37535,
        "meta_element_set_no": 999,
        "meta_rev_at_epoch": 85497,
        "meta_bstar": 0.00066760909,
        "meta_mean_motion_dot": 3.09e-05,
        "meta_mean_motion_ddot": 0,
        "tle_line1": "1 37535U 93036BNQ 25358.58465399  .00003090  00000+0  66761-3 0  9996",
        "tle_line2": "2 37535  74.0232  50.9348 0027136 187.9993 322.8470 14.58529628854976"
      },
      "geometry": {
        "type": "Point",
        "coordinates": [
          68.57582037031823,
          48.71285854902457
        ]
      }
    },
    {
      "type": "Feature",
      "properties": {
        "norad_id": 37537,
        "name": "COSMOS 2251 DEB",
        "group": "cosmos-2251-debris",
        "lat": 11.870117007516637,
        "lon": -114.60251041243659,
        "alt_km": 731.6491027168313,
        "timestamp": "2025-12-25T07:41:10.121149+00:00",
        "meta_object_name": "COSMOS 2251 DEB",
        "meta_object_id": "1993-036BNS",
        "meta_epoch": "2025-12-23T00:30:43.344864",
        "meta_mean_motion": 14.37504728,
        "meta_eccentricity": 0.00507516,
        "meta_inclination": 74.0118,
        "meta_ra_of_asc_node": 246.178,
        "meta_arg_of_pericenter": 23.6925,
        "meta_mean_anomaly": 336.6549,
        "meta_ephemeris_type": 0,
        "meta_classification_type": "U",
        "meta_norad_cat_id": 37537,
        "meta_element_set_no": 999,
        "meta_rev_at_epoch": 85181,
        "meta_bstar": 0.00019410826,
        "meta_mean_motion_dot": 5.64e-06,
        "meta_mean_motion_ddot": 0,
        "tle_line1": "1 37537U 93036BNS 25357.02133501  .00000564  00000+0  19411-3 0  9996",
        "tle_line2": "2 37537  74.0118 246.1780 0050751  23.6925 336.6549 14.37504728851811"
      },
      "geometry": {
        "type": "Point",
        "coordinates": [
          -114.60251041243659,
          11.870117007516637
        ]
      }
    },
    {
      "type": "Feature",
      "properties": {
        "norad_id": 37546,
        "name": "COSMOS 2251 DEB",
        "group": "cosmos-2251-debris",
        "lat": -63.06347376217422,
        "lon": -72.49991626869061,
        "alt_km": 636.6949871503757,
        "timestamp": "2025-12-25T07:41:10.121158+00:00",
        "meta_object_name": "COSMOS 2251 DEB",
        "meta_object_id": "1993-036BPB",
        "meta_epoch": "2025-12-22T05:36:41.418144",
        "meta_mean_motion": 14.80847243,
        "meta_eccentricity": 0.00051432,
        "meta_inclination": 74.0225,
        "meta_ra_of_asc_node": 79.2675,
        "meta_arg_of_pericenter": 73.5105,
        "meta_mean_anomaly": 286.6636,
        "meta_ephemeris_type": 0,
        "meta_classification_type": "U",
        "meta_norad_cat_id": 37546,
        "meta_element_set_no": 999,
        "meta_rev_at_epoch": 66028,
        "meta_bstar": 0.0026855013,
        "meta_mean_motion_dot": 0.00020767,
        "meta_mean_motion_ddot": 0,
        "tle_line1": "1 37546U 93036BPB 25356.23381271  .00020767  00000+0  26855-2 0  9993",
        "tle_line2": "2 37546  74.0225  79.2675 0005143  73.5105 286.6636 14.80847243660287"
      },
      "geometry": {
        "type": "Point",
        "coordinates": [
          -72.49991626869061,
          -63.06347376217422
        ]
      }
    },
    {
      "type": "Feature",
      "properties": {
        "norad_id": 37959,
        "name": "COSMOS 2251 DEB",
        "group": "cosmos-2251-debris",
        "lat": 37.6189707002934,
        "lon": -159.79799596374136,
        "alt_km": 661.6917379129945,
        "timestamp": "2025-12-25T07:41:10.121168+00:00",
        "meta_object_name": "COSMOS 2251 DEB",
        "meta_object_id": "1993-036BPJ",
        "meta_epoch": "2025-12-22T13:53:21.860736",
        "meta_mean_motion": 14.58199594,
        "meta_eccentricity": 0.00571783,
        "meta_inclination": 74.0084,
        "meta_ra_of_asc_node": 38.1929,
        "meta_arg_of_pericenter": 178.962,
        "meta_mean_anomaly": 335.9914,
        "meta_ephemeris_type": 0,
        "meta_classification_type": "U",
        "meta_norad_cat_id": 37959,
        "meta_element_set_no": 999,
        "meta_rev_at_epoch": 80270,
        "meta_bstar": 0.00056222313,
        "meta_mean_motion_dot": 2.624e-05,
        "meta_mean_motion_ddot": 0,
        "tle_line1": "1 37959U 93036BPJ 25356.57872524  .00002624  00000+0  56222-3 0  9998",
        "tle_line2": "2 37959  74.0084  38.1929 0057178 178.9620 335.9914 14.58199594802707"
      },
      "geometry": {
        "type": "Point",
        "coordinates": [
          -159.79799596374136,
          37.6189707002934
        ]
      }
    },
    {
      "type": "Feature",
      "properties": {
        "norad_id": 37960,
        "name": "COSMOS 2251 DEB",
        "group": "cosmos-2251-debris",
        "lat": -61.58386137893361,
        "lon": 16.73207220850747,
        "alt_km": 795.48995382046,
        "timestamp": "2025-12-25T07:41:10.121178+00:00",
        "meta_object_name": "COSMOS 2251 DEB",
        "meta_object_id": "1993-036BPK",
        "meta_epoch": "2025-12-23T05:04:36.493536",
        "meta_mean_motion": 14.07887566,
        "meta_eccentricity": 0.02481157,
        "meta_inclination": 74.0591,
        "meta_ra_of_asc_node": 168.5402,
        "meta_arg_of_pericenter": 184.7073,
        "meta_mean_anomaly": 175.1734,
        "meta_ephemeris_type": 0,
        "meta_classification_type": "U",
        "meta_norad_cat_id": 37960,
        "meta_element_set_no": 999,
        "meta_rev_at_epoch": 77553,
        "meta_bstar": 0.0007466601,
        "meta_mean_motion_dot": 1.655e-05,
        "meta_mean_motion_ddot": 0,
        "tle_line1": "1 37960U 93036BPK 25357.21153349  .00001655  00000+0  74666-3 0  9994",
        "tle_line2": "2 37960  74.0591 168.5402 0248115 184.7073 175.1734 14.07887566775537"
      },
      "geometry": {
        "type": "Point",
        "coordinates": [
          16.73207220850747,
          -61.58386137893361
        ]
      }
    },
    {
      "type": "Feature",
      "properties": {
        "norad_id": 37961,
        "name": "COSMOS 2251 DEB",
        "group": "cosmos-2251-debris",
        "lat": -19.55392550103191,
        "lon": -60.97658233895012,
        "alt_km": 675.5178053090458,
        "timestamp": "2025-12-25T07:41:10.121188+00:00",
        "meta_object_name": "COSMOS 2251 DEB",
        "meta_object_id": "1993-036BPL",
        "meta_epoch": "2025-12-13T03:18:27.462240",
        "meta_mean_motion": 14.57979799,
        "meta_eccentricity": 0.00406759,
        "meta_inclination": 74.0407,
        "meta_ra_of_asc_node": 136.3488,
        "meta_arg_of_pericenter": 216.8805,
        "meta_mean_anomaly": 142.9561,
        "meta_ephemeris_type": 0,
        "meta_classification_type": "U",
        "meta_norad_cat_id": 37961,
        "meta_element_set_no": 999,
        "meta_rev_at_epoch": 80071,
        "meta_bstar": 0.001729191,
        "meta_mean_motion_dot": 8.011e-05,
        "meta_mean_motion_ddot": 0,
        "tle_line1": "1 37961U 93036BPL 25347.13781785  .00008011  00000+0  17292-2 0  9990",
        "tle_line2": "2 37961  74.0407 136.3488 0040675 216.8805 142.9561 14.57979799800716"
      },
      "geometry": {
        "type": "Point",
        "coordinates": [
          -60.97658233895012,
          -19.55392550103191
        ]
      }
    },
    {
      "type": "Feature",
      "properties": {
        "norad_id": 37966,
        "name": "COSMOS 2251 DEB",
        "group": "cosmos-2251-debris",
        "lat": -66.55064984663422,
        "lon": 162.87266943906573,
        "alt_km": 535.6251603975415,
        "timestamp": "2025-12-25T07:41:10.121198+00:00",
        "meta_object_name": "COSMOS 2251 DEB",
        "meta_object_id": "1993-036BPR",
        "meta_epoch": "2025-12-13T08:51:38.421216",
        "meta_mean_motion": 15.12745257,
        "meta_eccentricity": 0.0008827,
        "meta_inclination": 73.9781,
        "meta_ra_of_asc_node": 229.2381,
        "meta_arg_of_pericenter": 105.5668,
        "meta_mean_anomaly": 254.6501,
        "meta_ephemeris_type": 0,
        "meta_classification_type": "U",
        "meta_norad_cat_id": 37966,
        "meta_element_set_no": 999,
        "meta_rev_at_epoch": 85352,
        "meta_bstar": 0.0033929269,
        "meta_mean_motion_dot": 0.00060007,
        "meta_mean_motion_ddot": 0,
        "tle_line1": "1 37966U 93036BPR 25347.36919469  .00060007  00000+0  33929-2 0  9990",
        "tle_line2": "2 37966  73.9781 229.2381 0008827 105.5668 254.6501 15.12745257853526"
      },
      "geometry": {
        "type": "Point",
        "coordinates": [
          162.87266943906573,
          -66.55064984663422
        ]
      }
    }
  ]
}